[{"OBJECT_NAME":"STARLINK-36260","OBJECT_ID":"2026-026M","EPOCH":"2026-03-09T22:00:01.999584","MEAN_MOTION":15.48166474,"ECCENTRICITY":0.00019852,"INCLINATION":97.2852,"RA_OF_ASC_NODE":123.4975,"ARG_OF_PERICENTER":71.8406,"MEAN_ANOMALY":121.4123,"EPHEMERIS_TYPE":0,"CLASSIFICATION_TYPE":"U","NORAD_CAT_ID":67732,"ELEMENT_SET_NO":999,"REV_AT_EPOCH":535,"BSTAR":-0.040776079,"MEAN_MOTION_DOT":-0.01921424,"MEAN_MOTION_DDOT":0},{"OBJECT_NAME":"OBJECT B","OBJECT_ID":"2022-158B","EPOCH":"2026-03-09T22:41:40.741152","MEAN_MOTION":15.49759097,"ECCENTRICITY":0.0010727,"INCLINATION":97.4774,"RA_OF_ASC_NODE":189.7942,"ARG_OF_PERICENTER":321.2118,"MEAN_ANOMALY":38.8362,"EPHEMERIS_TYPE":0,"CLASSIFICATION_TYPE":"U","NORAD_CAT_ID":54362,"ELEMENT_SET_NO":999,"REV_AT_EPOCH":18336,"BSTAR":0.0004299082,"MEAN_MOTION_DOT":0.00023884,"MEAN_MOTION_DDOT":0}]
